{"fetched_at":"2026-07-21T07:06:23.608Z","source":"https://celestrak.org/NORAD/elements/gp.php?GROUP=globalstar&FORMAT=JSON","constellation":"globalstar","records":[{"OBJECT_NAME":"GLOBALSTAR M069","OBJECT_ID":"2007-020C","EPOCH":"2026-07-20T07:14:28.989888","CLASSIFICATION_TYPE":"U","MEAN_MOTION":12.23472403,"ECCENTRICITY":0.00015221,"INCLINATION":52.0014,"RA_OF_ASC_NODE":158.3977,"ARG_OF_PERICENTER":221.2256,"MEAN_ANOMALY":303.6484,"EPHEMERIS_TYPE":0,"NORAD_CAT_ID":31573,"ELEMENT_SET_NO":999,"REV_AT_EPOCH":88285,"BSTAR":0.00036131564,"MEAN_MOTION_DOT":-5.3e-7,"MEAN_MOTION_DDOT":0},{"OBJECT_NAME":"GLOBALSTAR M072","OBJECT_ID":"2007-020D","EPOCH":"2026-07-20T18:43:29.061408","CLASSIFICATION_TYPE":"U","MEAN_MOTION":11.9165872,"ECCENTRICITY":0.00016484,"INCLINATION":51.9952,"RA_OF_ASC_NODE":10.8115,"ARG_OF_PERICENTER":45.7413,"MEAN_ANOMALY":56.8102,"EPHEMERIS_TYPE":0,"NORAD_CAT_ID":31574,"ELEMENT_SET_NO":999,"REV_AT_EPOCH":87898,"BSTAR":-0.0001048629,"MEAN_MOTION_DOT":-9.2e-7,"MEAN_MOTION_DDOT":0},{"OBJECT_NAME":"GLOBALSTAR M066","OBJECT_ID":"2007-048C","EPOCH":"2026-07-20T14:46:57.997920","CLASSIFICATION_TYPE":"U","MEAN_MOTION":12.30390155,"ECCENTRICITY":0.000552,"INCLINATION":51.9612,"RA_OF_ASC_NODE":321.9495,"ARG_OF_PERICENTER":112.7664,"MEAN_ANOMALY":260.24,"EPHEMERIS_TYPE":0,"NORAD_CAT_ID":32265,"ELEMENT_SET_NO":999,"REV_AT_EPOCH":86434,"BSTAR":0.00051907,"MEAN_MOTION_DOT":-3.3e-7,"MEAN_MOTION_DDOT":0},{"OBJECT_NAME":"GLOBALSTAR M079","OBJECT_ID":"2010-054A","EPOCH":"2026-07-20T19:11:47.651712","CLASSIFICATION_TYPE":"U","MEAN_MOTION":12.62266428,"ECCENTRICITY":0.00011222,"INCLINATION":52.0057,"RA_OF_ASC_NODE":6.3479,"ARG_OF_PERICENTER":86.8814,"MEAN_ANOMALY":21.4025,"EPHEMERIS_TYPE":0,"NORAD_CAT_ID":37188,"ELEMENT_SET_NO":999,"REV_AT_EPOCH":72679,"BSTAR":0.000005972104,"MEAN_MOTION_DOT":-0.00000103,"MEAN_MOTION_DDOT":0},{"OBJECT_NAME":"GLOBALSTAR M074","OBJECT_ID":"2010-054B","EPOCH":"2026-07-20T17:25:50.613600","CLASSIFICATION_TYPE":"U","MEAN_MOTION":12.62262037,"ECCENTRICITY":0.00008499,"INCLINATION":52.0036,"RA_OF_ASC_NODE":5.8322,"ARG_OF_PERICENTER":101.4908,"MEAN_ANOMALY":272.1774,"EPHEMERIS_TYPE":0,"NORAD_CAT_ID":37189,"ELEMENT_SET_NO":999,"REV_AT_EPOCH":72739,"BSTAR":-0.000022145228,"MEAN_MOTION_DOT":-0.00000108,"MEAN_MOTION_DDOT":0},{"OBJECT_NAME":"GLOBALSTAR M076","OBJECT_ID":"2010-054C","EPOCH":"2026-07-20T18:32:24.681696","CLASSIFICATION_TYPE":"U","MEAN_MOTION":12.62262572,"ECCENTRICITY":0.00010956,"INCLINATION":52.0052,"RA_OF_ASC_NODE":5.8977,"ARG_OF_PERICENTER":98.8648,"MEAN_ANOMALY":4.8835,"EPHEMERIS_TYPE":0,"NORAD_CAT_ID":37190,"ELEMENT_SET_NO":999,"REV_AT_EPOCH":72711,"BSTAR":0.000078715558,"MEAN_MOTION_DOT":-9e-7,"MEAN_MOTION_DDOT":0},{"OBJECT_NAME":"GLOBALSTAR M077","OBJECT_ID":"2010-054D","EPOCH":"2026-07-20T22:40:48.575424","CLASSIFICATION_TYPE":"U","MEAN_MOTION":11.67547146,"ECCENTRICITY":0.00021693,"INCLINATION":51.9962,"RA_OF_ASC_NODE":93.6132,"ARG_OF_PERICENTER":235.6827,"MEAN_ANOMALY":209.8609,"EPHEMERIS_TYPE":0,"NORAD_CAT_ID":37191,"ELEMENT_SET_NO":999,"REV_AT_EPOCH":72508,"BSTAR":-0.00036513452,"MEAN_MOTION_DOT":-9.8e-7,"MEAN_MOTION_DDOT":0},{"OBJECT_NAME":"GLOBALSTAR M075","OBJECT_ID":"2010-054E","EPOCH":"2026-07-20T20:46:27.580800","CLASSIFICATION_TYPE":"U","MEAN_MOTION":12.62267891,"ECCENTRICITY":0.00007881,"INCLINATION":51.9956,"RA_OF_ASC_NODE":47.6493,"ARG_OF_PERICENTER":73.1878,"MEAN_ANOMALY":34.4152,"EPHEMERIS_TYPE":0,"NORAD_CAT_ID":37192,"ELEMENT_SET_NO":999,"REV_AT_EPOCH":72619,"BSTAR":-0.000028052885,"MEAN_MOTION_DOT":-0.00000109,"MEAN_MOTION_DDOT":0},{"OBJECT_NAME":"GLOBALSTAR M073","OBJECT_ID":"2010-054F","EPOCH":"2026-07-20T14:34:57.745056","CLASSIFICATION_TYPE":"U","MEAN_MOTION":12.6226694,"ECCENTRICITY":0.0000991,"INCLINATION":52.0082,"RA_OF_ASC_NODE":322.5622,"ARG_OF_PERICENTER":105.3927,"MEAN_ANOMALY":267.6127,"EPHEMERIS_TYPE":0,"NORAD_CAT_ID":37193,"ELEMENT_SET_NO":999,"REV_AT_EPOCH":72815,"BSTAR":0.000033742,"MEAN_MOTION_DOT":-9.8e-7,"MEAN_MOTION_DDOT":0},{"OBJECT_NAME":"GLOBALSTAR M083","OBJECT_ID":"2011-033A","EPOCH":"2026-07-20T11:05:41.625312","CLASSIFICATION_TYPE":"U","MEAN_MOTION":12.6226435,"ECCENTRICITY":0.00006968,"INCLINATION":51.9856,"RA_OF_ASC_NODE":271.1887,"ARG_OF_PERICENTER":111.3845,"MEAN_ANOMALY":262.1674,"EPHEMERIS_TYPE":0,"NORAD_CAT_ID":37739,"ELEMENT_SET_NO":999,"REV_AT_EPOCH":69715,"BSTAR":0.000055294409,"MEAN_MOTION_DOT":-9.4e-7,"MEAN_MOTION_DDOT":0},{"OBJECT_NAME":"GLOBALSTAR M088","OBJECT_ID":"2011-033B","EPOCH":"2026-07-20T07:19:48.314784","CLASSIFICATION_TYPE":"U","MEAN_MOTION":12.62269494,"ECCENTRICITY":0.00001317,"INCLINATION":52.0191,"RA_OF_ASC_NODE":178.1717,"ARG_OF_PERICENTER":38.5229,"MEAN_ANOMALY":100.6158,"EPHEMERIS_TYPE":0,"NORAD_CAT_ID":37740,"ELEMENT_SET_NO":999,"REV_AT_EPOCH":69267,"BSTAR":0.000030622093,"MEAN_MOTION_DOT":-9.8e-7,"MEAN_MOTION_DDOT":0},{"OBJECT_NAME":"GLOBALSTAR M091","OBJECT_ID":"2011-033C","EPOCH":"2026-07-20T13:30:47.934720","CLASSIFICATION_TYPE":"U","MEAN_MOTION":12.6226431,"ECCENTRICITY":0.0000554,"INCLINATION":51.9989,"RA_OF_ASC_NODE":140.3041,"ARG_OF_PERICENTER":32.8709,"MEAN_ANOMALY":138.0964,"EPHEMERIS_TYPE":0,"NORAD_CAT_ID":37741,"ELEMENT_SET_NO":999,"REV_AT_EPOCH":69349,"BSTAR":0.000099156,"MEAN_MOTION_DOT":-8.6e-7,"MEAN_MOTION_DDOT":0},{"OBJECT_NAME":"GLOBALSTAR M085","OBJECT_ID":"2011-033D","EPOCH":"2026-07-20T20:17:56.995584","CLASSIFICATION_TYPE":"U","MEAN_MOTION":12.62264513,"ECCENTRICITY":0.00008825,"INCLINATION":52.0129,"RA_OF_ASC_NODE":90.7653,"ARG_OF_PERICENTER":51.7372,"MEAN_ANOMALY":24.6874,"EPHEMERIS_TYPE":0,"NORAD_CAT_ID":37742,"ELEMENT_SET_NO":999,"REV_AT_EPOCH":69404,"BSTAR":0.000063625877,"MEAN_MOTION_DOT":-9.2e-7,"MEAN_MOTION_DDOT":0},{"OBJECT_NAME":"GLOBALSTAR M081","OBJECT_ID":"2011-033E","EPOCH":"2026-07-20T20:56:46.636800","CLASSIFICATION_TYPE":"U","MEAN_MOTION":12.62265381,"ECCENTRICITY":0.00007612,"INCLINATION":51.996,"RA_OF_ASC_NODE":93.0808,"ARG_OF_PERICENTER":63.0555,"MEAN_ANOMALY":15.8381,"EPHEMERIS_TYPE":0,"NORAD_CAT_ID":37743,"ELEMENT_SET_NO":999,"REV_AT_EPOCH":69419,"BSTAR":0.000039957888,"MEAN_MOTION_DOT":-9.7e-7,"MEAN_MOTION_DDOT":0},{"OBJECT_NAME":"GLOBALSTAR M089","OBJECT_ID":"2011-033F","EPOCH":"2026-07-20T18:05:40.137792","CLASSIFICATION_TYPE":"U","MEAN_MOTION":12.62267632,"ECCENTRICITY":0.00007244,"INCLINATION":51.9941,"RA_OF_ASC_NODE":47.5945,"ARG_OF_PERICENTER":96.2416,"MEAN_ANOMALY":343.5802,"EPHEMERIS_TYPE":0,"NORAD_CAT_ID":37744,"ELEMENT_SET_NO":999,"REV_AT_EPOCH":69502,"BSTAR":-0.000022688726,"MEAN_MOTION_DOT":-0.00000108,"MEAN_MOTION_DDOT":0},{"OBJECT_NAME":"GLOBALSTAR M084","OBJECT_ID":"2011-080A","EPOCH":"2026-07-20T22:41:57.530400","CLASSIFICATION_TYPE":"U","MEAN_MOTION":12.62263682,"ECCENTRICITY":0.00007053,"INCLINATION":52.0009,"RA_OF_ASC_NODE":274.5117,"ARG_OF_PERICENTER":140.5467,"MEAN_ANOMALY":31.3032,"EPHEMERIS_TYPE":0,"NORAD_CAT_ID":38040,"ELEMENT_SET_NO":999,"REV_AT_EPOCH":67302,"BSTAR":0.000047201337,"MEAN_MOTION_DOT":-9.5e-7,"MEAN_MOTION_DDOT":0}]}
